ONEWEB-0564             
1 55801U 23029F   26199.72596333  .00001282  00000+0  31211-2 0  9992
2 55801  87.9174 268.1662 0001286 114.9730 245.1537 13.20761259165319
ONEWEB-0638             
1 55802U 23029G   26199.75359544  .00000168  00000+0  41749-3 0  9997
2 55802  87.8953 283.4596 0001496 105.8117 254.3178 13.14504534163541
ONEWEB-0639             
1 55803U 23029H   26199.79913694 -.00000160  00000+0 -43220-3 0  9994
2 55803  87.9185 298.6812 0002716 116.6253 243.5158 13.19724998163075
ONEWEB-0640             
1 55804U 23029J   26199.76311737  .00000193  00000+0  48614-3 0  9998
2 55804  87.8952 283.4487 0001692 118.6874 241.4426 13.14502714163564
ONEWEB-0641             
1 55805U 23029K   26199.79441859  .00001116  00000+0  27558-2 0  9990
2 55805  87.9199 298.6739 0002036 108.2412 251.8942 13.19721509163088
ONEWEB-0642             
1 55806U 23029L   26199.78967580  .00000007  00000+0 -14576-4 0  9991
2 55806  87.9187 298.6843 0002758 110.8907 249.2521 13.19726121163079
ONEWEB-0643             
1 55807U 23029M   26199.73298877 -.00000150  00000+0 -43852-3 0  9991
2 55807  87.8955 283.4420 0002697 104.5337 255.6092 13.14502892163531
ONEWEB-0644             
1 55808U 23029N   26199.78494030 -.00000029  00000+0 -10381-3 0  9992
2 55808  87.9183 298.6860 0002345 105.3233 254.8159 13.19725973163072
ONEWEB-0645             
1 55809U 23029P   26199.80705133 -.00000094  00000+0 -26702-3 0  9991
2 55809  87.9184 298.6786 0002114 113.8140 246.3215 13.19725889163071
ONEWEB-0646             
1 55810U 23029Q   26199.82441336  .00000096  00000+0  20749-3 0  9992
2 55810  87.9183 298.6753 0002238 104.8300 255.3081 13.19727289163067
ONEWEB-0648             
1 55811U 23029R   26199.77738503  .00000041  00000+0  74831-4 0  9994
2 55811  87.8967 283.4099 0002516 120.4755 239.6624 13.14502817163543
ONEWEB-0649             
1 55812U 23029S   26199.77386674 -.00000164  00000+0 -44171-3 0  9994
2 55812  87.9186 298.6837 0002099 108.2230 251.9131 13.19725236163091
ONEWEB-0650             
1 55813U 23029T   26199.76913412 -.00000052  00000+0 -16299-3 0  9996
2 55813  87.9184 298.6872 0002551 110.0281 250.1127 13.19724930163062
ONEWEB-0652             
1 55814U 23029U   26199.75835955  .00000201  00000+0  50775-3 0  9992
2 55814  87.8965 283.4203 0001979  94.8889 265.2467 13.14502853163512
ONEWEB-0653             
1 55815U 23029V   26199.74249757  .00000005  00000+0 -21288-4 0  9992
2 55815  87.8966 283.4217 0001940 100.1486 259.9863 13.14502699163542
ONEWEB-0654             
1 55816U 23029W   26199.73773851 -.00000083  00000+0 -25757-3 0  9990
2 55816  87.8965 283.4187 0001787  92.7645 267.3689 13.14502215163565
