{"fetched_at":"2026-07-19T07:04:49.137Z","source":"https://celestrak.org/NORAD/elements/gp.php?GROUP=oneweb&FORMAT=JSON","constellation":"oneweb","records":[{"OBJECT_NAME":"ONEWEB-0564","OBJECT_ID":"2023-029F","EPOCH":"2026-07-18T17:25:23.231712","CLASSIFICATION_TYPE":"U","MEAN_MOTION":13.20761259,"ECCENTRICITY":0.0001286,"INCLINATION":87.9174,"RA_OF_ASC_NODE":268.1662,"ARG_OF_PERICENTER":114.973,"MEAN_ANOMALY":245.1537,"EPHEMERIS_TYPE":0,"NORAD_CAT_ID":55801,"ELEMENT_SET_NO":999,"REV_AT_EPOCH":16531,"BSTAR":0.0031211,"MEAN_MOTION_DOT":0.00001282,"MEAN_MOTION_DDOT":0},{"OBJECT_NAME":"ONEWEB-0638","OBJECT_ID":"2023-029G","EPOCH":"2026-07-18T18:05:10.646016","CLASSIFICATION_TYPE":"U","MEAN_MOTION":13.14504534,"ECCENTRICITY":0.0001496,"INCLINATION":87.8953,"RA_OF_ASC_NODE":283.4596,"ARG_OF_PERICENTER":105.8117,"MEAN_ANOMALY":254.3178,"EPHEMERIS_TYPE":0,"NORAD_CAT_ID":55802,"ELEMENT_SET_NO":999,"REV_AT_EPOCH":16354,"BSTAR":0.00041749,"MEAN_MOTION_DOT":0.00000168,"MEAN_MOTION_DDOT":0},{"OBJECT_NAME":"ONEWEB-0639","OBJECT_ID":"2023-029H","EPOCH":"2026-07-18T19:10:45.431616","CLASSIFICATION_TYPE":"U","MEAN_MOTION":13.19724998,"ECCENTRICITY":0.0002716,"INCLINATION":87.9185,"RA_OF_ASC_NODE":298.6812,"ARG_OF_PERICENTER":116.6253,"MEAN_ANOMALY":243.5158,"EPHEMERIS_TYPE":0,"NORAD_CAT_ID":55803,"ELEMENT_SET_NO":999,"REV_AT_EPOCH":16307,"BSTAR":-0.0004322,"MEAN_MOTION_DOT":-0.0000016,"MEAN_MOTION_DDOT":0},{"OBJECT_NAME":"ONEWEB-0640","OBJECT_ID":"2023-029J","EPOCH":"2026-07-18T18:18:53.340768","CLASSIFICATION_TYPE":"U","MEAN_MOTION":13.14502714,"ECCENTRICITY":0.0001692,"INCLINATION":87.8952,"RA_OF_ASC_NODE":283.4487,"ARG_OF_PERICENTER":118.6874,"MEAN_ANOMALY":241.4426,"EPHEMERIS_TYPE":0,"NORAD_CAT_ID":55804,"ELEMENT_SET_NO":999,"REV_AT_EPOCH":16356,"BSTAR":0.00048614,"MEAN_MOTION_DOT":0.00000193,"MEAN_MOTION_DDOT":0},{"OBJECT_NAME":"ONEWEB-0641","OBJECT_ID":"2023-029K","EPOCH":"2026-07-18T19:03:57.766176","CLASSIFICATION_TYPE":"U","MEAN_MOTION":13.19721509,"ECCENTRICITY":0.0002036,"INCLINATION":87.9199,"RA_OF_ASC_NODE":298.6739,"ARG_OF_PERICENTER":108.2412,"MEAN_ANOMALY":251.8942,"EPHEMERIS_TYPE":0,"NORAD_CAT_ID":55805,"ELEMENT_SET_NO":999,"REV_AT_EPOCH":16308,"BSTAR":0.0027558,"MEAN_MOTION_DOT":0.00001116,"MEAN_MOTION_DDOT":0},{"OBJECT_NAME":"ONEWEB-0642","OBJECT_ID":"2023-029L","EPOCH":"2026-07-18T18:57:07.989120","CLASSIFICATION_TYPE":"U","MEAN_MOTION":13.19726121,"ECCENTRICITY":0.0002758,"INCLINATION":87.9187,"RA_OF_ASC_NODE":298.6843,"ARG_OF_PERICENTER":110.8907,"MEAN_ANOMALY":249.2521,"EPHEMERIS_TYPE":0,"NORAD_CAT_ID":55806,"ELEMENT_SET_NO":999,"REV_AT_EPOCH":16307,"BSTAR":-0.000014576,"MEAN_MOTION_DOT":7e-8,"MEAN_MOTION_DDOT":0},{"OBJECT_NAME":"ONEWEB-0643","OBJECT_ID":"2023-029M","EPOCH":"2026-07-18T17:35:30.229728","CLASSIFICATION_TYPE":"U","MEAN_MOTION":13.14502892,"ECCENTRICITY":0.0002697,"INCLINATION":87.8955,"RA_OF_ASC_NODE":283.442,"ARG_OF_PERICENTER":104.5337,"MEAN_ANOMALY":255.6092,"EPHEMERIS_TYPE":0,"NORAD_CAT_ID":55807,"ELEMENT_SET_NO":999,"REV_AT_EPOCH":16353,"BSTAR":-0.00043852,"MEAN_MOTION_DOT":-0.0000015,"MEAN_MOTION_DDOT":0},{"OBJECT_NAME":"ONEWEB-0644","OBJECT_ID":"2023-029N","EPOCH":"2026-07-18T18:50:18.841920","CLASSIFICATION_TYPE":"U","MEAN_MOTION":13.19725973,"ECCENTRICITY":0.0002345,"INCLINATION":87.9183,"RA_OF_ASC_NODE":298.686,"ARG_OF_PERICENTER":105.3233,"MEAN_ANOMALY":254.8159,"EPHEMERIS_TYPE":0,"NORAD_CAT_ID":55808,"ELEMENT_SET_NO":999,"REV_AT_EPOCH":16307,"BSTAR":-0.00010381,"MEAN_MOTION_DOT":-2.9e-7,"MEAN_MOTION_DDOT":0},{"OBJECT_NAME":"ONEWEB-0645","OBJECT_ID":"2023-029P","EPOCH":"2026-07-18T19:22:09.234912","CLASSIFICATION_TYPE":"U","MEAN_MOTION":13.19725889,"ECCENTRICITY":0.0002114,"INCLINATION":87.9184,"RA_OF_ASC_NODE":298.6786,"ARG_OF_PERICENTER":113.814,"MEAN_ANOMALY":246.3215,"EPHEMERIS_TYPE":0,"NORAD_CAT_ID":55809,"ELEMENT_SET_NO":999,"REV_AT_EPOCH":16307,"BSTAR":-0.00026702,"MEAN_MOTION_DOT":-9.4e-7,"MEAN_MOTION_DDOT":0},{"OBJECT_NAME":"ONEWEB-0646","OBJECT_ID":"2023-029Q","EPOCH":"2026-07-18T19:47:09.314304","CLASSIFICATION_TYPE":"U","MEAN_MOTION":13.19727289,"ECCENTRICITY":0.0002238,"INCLINATION":87.9183,"RA_OF_ASC_NODE":298.6753,"ARG_OF_PERICENTER":104.83,"MEAN_ANOMALY":255.3081,"EPHEMERIS_TYPE":0,"NORAD_CAT_ID":55810,"ELEMENT_SET_NO":999,"REV_AT_EPOCH":16306,"BSTAR":0.00020749,"MEAN_MOTION_DOT":9.6e-7,"MEAN_MOTION_DDOT":0},{"OBJECT_NAME":"ONEWEB-0648","OBJECT_ID":"2023-029R","EPOCH":"2026-07-18T18:39:26.066592","CLASSIFICATION_TYPE":"U","MEAN_MOTION":13.14502817,"ECCENTRICITY":0.0002516,"INCLINATION":87.8967,"RA_OF_ASC_NODE":283.4099,"ARG_OF_PERICENTER":120.4755,"MEAN_ANOMALY":239.6624,"EPHEMERIS_TYPE":0,"NORAD_CAT_ID":55811,"ELEMENT_SET_NO":999,"REV_AT_EPOCH":16354,"BSTAR":0.000074831,"MEAN_MOTION_DOT":4.1e-7,"MEAN_MOTION_DDOT":0},{"OBJECT_NAME":"ONEWEB-0649","OBJECT_ID":"2023-029S","EPOCH":"2026-07-18T18:34:22.086336","CLASSIFICATION_TYPE":"U","MEAN_MOTION":13.19725236,"ECCENTRICITY":0.0002099,"INCLINATION":87.9186,"RA_OF_ASC_NODE":298.6837,"ARG_OF_PERICENTER":108.223,"MEAN_ANOMALY":251.9131,"EPHEMERIS_TYPE":0,"NORAD_CAT_ID":55812,"ELEMENT_SET_NO":999,"REV_AT_EPOCH":16309,"BSTAR":-0.00044171,"MEAN_MOTION_DOT":-0.00000164,"MEAN_MOTION_DDOT":0},{"OBJECT_NAME":"ONEWEB-0650","OBJECT_ID":"2023-029T","EPOCH":"2026-07-18T18:27:33.187968","CLASSIFICATION_TYPE":"U","MEAN_MOTION":13.1972493,"ECCENTRICITY":0.0002551,"INCLINATION":87.9184,"RA_OF_ASC_NODE":298.6872,"ARG_OF_PERICENTER":110.0281,"MEAN_ANOMALY":250.1127,"EPHEMERIS_TYPE":0,"NORAD_CAT_ID":55813,"ELEMENT_SET_NO":999,"REV_AT_EPOCH":16306,"BSTAR":-0.00016299,"MEAN_MOTION_DOT":-5.2e-7,"MEAN_MOTION_DDOT":0},{"OBJECT_NAME":"ONEWEB-0652","OBJECT_ID":"2023-029U","EPOCH":"2026-07-18T18:12:02.265120","CLASSIFICATION_TYPE":"U","MEAN_MOTION":13.14502853,"ECCENTRICITY":0.0001979,"INCLINATION":87.8965,"RA_OF_ASC_NODE":283.4203,"ARG_OF_PERICENTER":94.8889,"MEAN_ANOMALY":265.2467,"EPHEMERIS_TYPE":0,"NORAD_CAT_ID":55814,"ELEMENT_SET_NO":999,"REV_AT_EPOCH":16351,"BSTAR":0.00050775,"MEAN_MOTION_DOT":0.00000201,"MEAN_MOTION_DDOT":0},{"OBJECT_NAME":"ONEWEB-0653","OBJECT_ID":"2023-029V","EPOCH":"2026-07-18T17:49:11.790048","CLASSIFICATION_TYPE":"U","MEAN_MOTION":13.14502699,"ECCENTRICITY":0.000194,"INCLINATION":87.8966,"RA_OF_ASC_NODE":283.4217,"ARG_OF_PERICENTER":100.1486,"MEAN_ANOMALY":259.9863,"EPHEMERIS_TYPE":0,"NORAD_CAT_ID":55815,"ELEMENT_SET_NO":999,"REV_AT_EPOCH":16354,"BSTAR":-0.000021288,"MEAN_MOTION_DOT":5e-8,"MEAN_MOTION_DDOT":0},{"OBJECT_NAME":"ONEWEB-0654","OBJECT_ID":"2023-029W","EPOCH":"2026-07-18T17:42:20.607264","CLASSIFICATION_TYPE":"U","MEAN_MOTION":13.14502215,"ECCENTRICITY":0.0001787,"INCLINATION":87.8965,"RA_OF_ASC_NODE":283.4187,"ARG_OF_PERICENTER":92.7645,"MEAN_ANOMALY":267.3689,"EPHEMERIS_TYPE":0,"NORAD_CAT_ID":55816,"ELEMENT_SET_NO":999,"REV_AT_EPOCH":16356,"BSTAR":-0.00025757,"MEAN_MOTION_DOT":-8.3e-7,"MEAN_MOTION_DDOT":0}]}
